[Satellite]
VERSION=1.1
NAME=GENESIS 2
NICKNAME=GENESIS 2
TLE1=1 31789U 07028A   20158.09313178  .00000362  00000-0  28116-4 0  9996
TLE2=2 31789  64.5056  20.3024 0047521 243.0645 116.5619 15.17269488713449
STATUS=0
